[{"OBJECT_NAME":"STARLINK-34342","OBJECT_ID":"2025-120R","EPOCH":"2026-01-05T07:48:02.750976","MEAN_MOTION":15.3022263,"ECCENTRICITY":0.00020999,"INCLINATION":53.1598,"RA_OF_ASC_NODE":51.0938,"ARG_OF_PERICENTER":139.3861,"MEAN_ANOMALY":220.7297,"EPHEMERIS_TYPE":0,"CLASSIFICATION_TYPE":"U","NORAD_CAT_ID":64271,"ELEMENT_SET_NO":999,"REV_AT_EPOCH":3416,"BSTAR":0.0010338693,"MEAN_MOTION_DOT":0.00030408,"MEAN_MOTION_DDOT":0},{"OBJECT_NAME":"STARLINK-34001","OBJECT_ID":"2025-120S","EPOCH":"2026-01-05T06:47:25.704960","MEAN_MOTION":15.30205339,"ECCENTRICITY":0.00012667,"INCLINATION":53.1589,"RA_OF_ASC_NODE":51.54,"ARG_OF_PERICENTER":93.1339,"MEAN_ANOMALY":266.9807,"EPHEMERIS_TYPE":0,"CLASSIFICATION_TYPE":"U","NORAD_CAT_ID":64272,"ELEMENT_SET_NO":999,"REV_AT_EPOCH":3410,"BSTAR":0.00070301582,"MEAN_MOTION_DOT":0.00020523,"MEAN_MOTION_DDOT":0},{"OBJECT_NAME":"STARLINK-34334","OBJECT_ID":"2025-120T","EPOCH":"2026-01-05T06:56:22.981632","MEAN_MOTION":15.30219236,"ECCENTRICITY":0.00012731,"INCLINATION":53.1579,"RA_OF_ASC_NODE":50.8673,"ARG_OF_PERICENTER":98.6047,"MEAN_ANOMALY":261.5098,"EPHEMERIS_TYPE":0,"CLASSIFICATION_TYPE":"U","NORAD_CAT_ID":64273,"ELEMENT_SET_NO":999,"REV_AT_EPOCH":3421,"BSTAR":0.0013278422,"MEAN_MOTION_DOT":0.00039199,"MEAN_MOTION_DDOT":0},{"OBJECT_NAME":"STARLINK-34272","OBJECT_ID":"2025-120U","EPOCH":"2026-01-05T06:38:18.748896","MEAN_MOTION":15.30228866,"ECCENTRICITY":9.703e-5,"INCLINATION":53.1573,"RA_OF_ASC_NODE":51.5002,"ARG_OF_PERICENTER":73.2228,"MEAN_ANOMALY":286.8879,"EPHEMERIS_TYPE":0,"CLASSIFICATION_TYPE":"U","NORAD_CAT_ID":64274,"ELEMENT_SET_NO":999,"REV_AT_EPOCH":3410,"BSTAR":0.0013898701,"MEAN_MOTION_DOT":0.00041069,"MEAN_MOTION_DDOT":0},{"OBJECT_NAME":"STARLINK-34293","OBJECT_ID":"2025-120V","EPOCH":"2026-01-05T06:42:52.549632","MEAN_MOTION":15.30158205,"ECCENTRICITY":9.762e-5,"INCLINATION":53.1579,"RA_OF_ASC_NODE":51.5183,"ARG_OF_PERICENTER":91.5539,"MEAN_ANOMALY":268.5574,"EPHEMERIS_TYPE":0,"CLASSIFICATION_TYPE":"U","NORAD_CAT_ID":64275,"ELEMENT_SET_NO":999,"REV_AT_EPOCH":3414,"BSTAR":0.00020278241,"MEAN_MOTION_DOT":5.644e-5,"MEAN_MOTION_DDOT":0},{"OBJECT_NAME":"STARLINK-34350","OBJECT_ID":"2025-120W","EPOCH":"2026-01-05T07:16:08.348160","MEAN_MOTION":15.30206867,"ECCENTRICITY":8.047e-5,"INCLINATION":53.16,"RA_OF_ASC_NODE":50.9529,"ARG_OF_PERICENTER":100.3237,"MEAN_ANOMALY":259.7855,"EPHEMERIS_TYPE":0,"CLASSIFICATION_TYPE":"U","NORAD_CAT_ID":64276,"ELEMENT_SET_NO":999,"REV_AT_EPOCH":3421,"BSTAR":0.00097166208,"MEAN_MOTION_DOT":0.00028535,"MEAN_MOTION_DDOT":0},{"OBJECT_NAME":"STARLINK-34264","OBJECT_ID":"2025-120X","EPOCH":"2026-01-05T07:54:07.614720","MEAN_MOTION":15.30216732,"ECCENTRICITY":0.00010652,"INCLINATION":53.1587,"RA_OF_ASC_NODE":51.1158,"ARG_OF_PERICENTER":101.3941,"MEAN_ANOMALY":258.718,"EPHEMERIS_TYPE":0,"CLASSIFICATION_TYPE":"U","NORAD_CAT_ID":64277,"ELEMENT_SET_NO":999,"REV_AT_EPOCH":3415,"BSTAR":0.00096147054,"MEAN_MOTION_DOT":0.0002824,"MEAN_MOTION_DDOT":0},{"OBJECT_NAME":"STARLINK-34353","OBJECT_ID":"2025-120Y","EPOCH":"2026-01-05T06:33:45.126144","MEAN_MOTION":15.30225877,"ECCENTRICITY":0.00013448,"INCLINATION":53.1582,"RA_OF_ASC_NODE":51.4808,"ARG_OF_PERICENTER":81.4168,"MEAN_ANOMALY":278.6986,"EPHEMERIS_TYPE":0,"CLASSIFICATION_TYPE":"U","NORAD_CAT_ID":64278,"ELEMENT_SET_NO":999,"REV_AT_EPOCH":3420,"BSTAR":0.0012352817,"MEAN_MOTION_DOT":0.00036435,"MEAN_MOTION_DDOT":0},{"OBJECT_NAME":"STARLINK-34377","OBJECT_ID":"2025-120Z","EPOCH":"2026-01-05T07:23:43.137024","MEAN_MOTION":15.30169681,"ECCENTRICITY":0.00012054,"INCLINATION":53.1602,"RA_OF_ASC_NODE":50.9841,"ARG_OF_PERICENTER":31.4664,"MEAN_ANOMALY":328.6409,"EPHEMERIS_TYPE":0,"CLASSIFICATION_TYPE":"U","NORAD_CAT_ID":64279,"ELEMENT_SET_NO":999,"REV_AT_EPOCH":3421,"BSTAR":0.00021011874,"MEAN_MOTION_DOT":5.863e-5,"MEAN_MOTION_DDOT":0},{"OBJECT_NAME":"STARLINK-34359","OBJECT_ID":"2025-120AA","EPOCH":"2026-01-05T06:27:40.587264","MEAN_MOTION":15.30224888,"ECCENTRICITY":0.00013942,"INCLINATION":53.1591,"RA_OF_ASC_NODE":51.4518,"ARG_OF_PERICENTER":74.1625,"MEAN_ANOMALY":285.953,"EPHEMERIS_TYPE":0,"CLASSIFICATION_TYPE":"U","NORAD_CAT_ID":64280,"ELEMENT_SET_NO":999,"REV_AT_EPOCH":3420,"BSTAR":0.0013686923,"MEAN_MOTION_DOT":0.0004043,"MEAN_MOTION_DDOT":0},{"OBJECT_NAME":"STARLINK-34366","OBJECT_ID":"2025-120AB","EPOCH":"2026-01-05T07:38:55.619520","MEAN_MOTION":15.30228845,"ECCENTRICITY":0.00028897,"INCLINATION":53.1602,"RA_OF_ASC_NODE":51.05,"ARG_OF_PERICENTER":142.5808,"MEAN_ANOMALY":217.5395,"EPHEMERIS_TYPE":0,"CLASSIFICATION_TYPE":"U","NORAD_CAT_ID":64281,"ELEMENT_SET_NO":999,"REV_AT_EPOCH":3416,"BSTAR":0.0012798036,"MEAN_MOTION_DOT":0.00037774,"MEAN_MOTION_DDOT":0},{"OBJECT_NAME":"STARLINK-34381","OBJECT_ID":"2025-120AC","EPOCH":"2026-01-05T07:51:05.418720","MEAN_MOTION":15.30206348,"ECCENTRICITY":0.00013838,"INCLINATION":53.1599,"RA_OF_ASC_NODE":51.1034,"ARG_OF_PERICENTER":103.0385,"MEAN_ANOMALY":257.0771,"EPHEMERIS_TYPE":0,"CLASSIFICATION_TYPE":"U","NORAD_CAT_ID":64282,"ELEMENT_SET_NO":999,"REV_AT_EPOCH":3419,"BSTAR":0.00051405954,"MEAN_MOTION_DOT":0.00014899,"MEAN_MOTION_DDOT":0},{"OBJECT_NAME":"STARLINK-34448","OBJECT_ID":"2025-123A","EPOCH":"2026-01-05T04:04:05.738304","MEAN_MOTION":15.00204122,"ECCENTRICITY":0.00120164,"INCLINATION":70.0026,"RA_OF_ASC_NODE":354.618,"ARG_OF_PERICENTER":260.9291,"MEAN_ANOMALY":99.0509,"EPHEMERIS_TYPE":0,"CLASSIFICATION_TYPE":"U","NORAD_CAT_ID":64291,"ELEMENT_SET_NO":999,"REV_AT_EPOCH":3332,"BSTAR":0.088512465,"MEAN_MOTION_DOT":0.01197074,"MEAN_MOTION_DDOT":0},{"OBJECT_NAME":"STARLINK-34362","OBJECT_ID":"2025-123B","EPOCH":"2026-01-05T07:34:52.450176","MEAN_MOTION":14.98347199,"ECCENTRICITY":0.00031541,"INCLINATION":70.0035,"RA_OF_ASC_NODE":354.33,"ARG_OF_PERICENTER":253.2591,"MEAN_ANOMALY":106.8222,"EPHEMERIS_TYPE":0,"CLASSIFICATION_TYPE":"U","NORAD_CAT_ID":64292,"ELEMENT_SET_NO":999,"REV_AT_EPOCH":3334,"BSTAR":0.0019396839,"MEAN_MOTION_DOT":0.00023138,"MEAN_MOTION_DDOT":0},{"OBJECT_NAME":"STARLINK-34428","OBJECT_ID":"2025-123C","EPOCH":"2026-01-05T06:46:45.995520","MEAN_MOTION":14.9833259,"ECCENTRICITY":0.00028566,"INCLINATION":70.0025,"RA_OF_ASC_NODE":354.2093,"ARG_OF_PERICENTER":264.2793,"MEAN_ANOMALY":95.8041,"EPHEMERIS_TYPE":0,"CLASSIFICATION_TYPE":"U","NORAD_CAT_ID":64293,"ELEMENT_SET_NO":999,"REV_AT_EPOCH":3334,"BSTAR":0.00053345537,"MEAN_MOTION_DOT":6.278e-5,"MEAN_MOTION_DDOT":0},{"OBJECT_NAME":"STARLINK-34388","OBJECT_ID":"2025-123D","EPOCH":"2026-01-04T23:45:48.522816","MEAN_MOTION":15.00136451,"ECCENTRICITY":0.0015984,"INCLINATION":70.0059,"RA_OF_ASC_NODE":355.1979,"ARG_OF_PERICENTER":234.602,"MEAN_ANOMALY":125.3648,"EPHEMERIS_TYPE":0,"CLASSIFICATION_TYPE":"U","NORAD_CAT_ID":64294,"ELEMENT_SET_NO":999,"REV_AT_EPOCH":3329,"BSTAR":0.094469,"MEAN_MOTION_DOT":0.01283285,"MEAN_MOTION_DDOT":0},{"OBJECT_NAME":"STARLINK-34424","OBJECT_ID":"2025-123E","EPOCH":"2026-01-05T06:22:44.204160","MEAN_MOTION":14.98384316,"ECCENTRICITY":0.00028482,"INCLINATION":70.0031,"RA_OF_ASC_NODE":354.5475,"ARG_OF_PERICENTER":248.1008,"MEAN_ANOMALY":111.9849,"EPHEMERIS_TYPE":0,"CLASSIFICATION_TYPE":"U","NORAD_CAT_ID":64295,"ELEMENT_SET_NO":999,"REV_AT_EPOCH":3333,"BSTAR":-0.0047598261,"MEAN_MOTION_DOT":-0.0005651,"MEAN_MOTION_DDOT":0},{"OBJECT_NAME":"STARLINK-34443","OBJECT_ID":"2025-123F","EPOCH":"2026-01-05T07:10:50.268288","MEAN_MOTION":14.98343156,"ECCENTRICITY":0.00029772,"INCLINATION":70.0032,"RA_OF_ASC_NODE":354.2678,"ARG_OF_PERICENTER":257.0812,"MEAN_ANOMALY":103.0015,"EPHEMERIS_TYPE":0,"CLASSIFICATION_TYPE":"U","NORAD_CAT_ID":64296,"ELEMENT_SET_NO":999,"REV_AT_EPOCH":3334,"BSTAR":0.00061803316,"MEAN_MOTION_DOT":7.291e-5,"MEAN_MOTION_DDOT":0},{"OBJECT_NAME":"STARLINK-34369","OBJECT_ID":"2025-123G","EPOCH":"2026-01-05T07:29:05.253504","MEAN_MOTION":14.98322162,"ECCENTRICITY":0.00029147,"INCLINATION":70.004,"RA_OF_ASC_NODE":354.3087,"ARG_OF_PERICENTER":277.1313,"MEAN_ANOMALY":82.9515,"EPHEMERIS_TYPE":0,"CLASSIFICATION_TYPE":"U","NORAD_CAT_ID":64297,"ELEMENT_SET_NO":999,"REV_AT_EPOCH":3212,"BSTAR":0.0023775229,"MEAN_MOTION_DOT":0.00028384,"MEAN_MOTION_DDOT":0},{"OBJECT_NAME":"STARLINK-34391","OBJECT_ID":"2025-123H","EPOCH":"2026-01-05T06:28:43.975488","MEAN_MOTION":14.98341438,"ECCENTRICITY":0.00028424,"INCLINATION":70.0032,"RA_OF_ASC_NODE":354.1657,"ARG_OF_PERICENTER":268.4631,"MEAN_ANOMALY":91.6202,"EPHEMERIS_TYPE":0,"CLASSIFICATION_TYPE":"U","NORAD_CAT_ID":64298,"ELEMENT_SET_NO":999,"REV_AT_EPOCH":3212,"BSTAR":0.00057325892,"MEAN_MOTION_DOT":6.756e-5,"MEAN_MOTION_DDOT":0},{"OBJECT_NAME":"STARLINK-34378","OBJECT_ID":"2025-123J","EPOCH":"2026-01-05T07:11:04.848288","MEAN_MOTION":14.98336376,"ECCENTRICITY":0.00029011,"INCLINATION":70.0023,"RA_OF_ASC_NODE":354.2714,"ARG_OF_PERICENTER":274.425,"MEAN_ANOMALY":85.6578,"EPHEMERIS_TYPE":0,"CLASSIFICATION_TYPE":"U","NORAD_CAT_ID":64299,"ELEMENT_SET_NO":999,"REV_AT_EPOCH":3212,"BSTAR":0.00094661986,"MEAN_MOTION_DOT":0.00011222,"MEAN_MOTION_DDOT":0},{"OBJECT_NAME":"STARLINK-34376","OBJECT_ID":"2025-123K","EPOCH":"2026-01-04T09:21:08.709696","MEAN_MOTION":14.98092497,"ECCENTRICITY":0.00052526,"INCLINATION":69.9974,"RA_OF_ASC_NODE":356.7138,"ARG_OF_PERICENTER":216.4601,"MEAN_ANOMALY":143.6201,"EPHEMERIS_TYPE":0,"CLASSIFICATION_TYPE":"U","NORAD_CAT_ID":64300,"ELEMENT_SET_NO":999,"REV_AT_EPOCH":3198,"BSTAR":-0.012129914,"MEAN_MOTION_DOT":-0.00141119,"MEAN_MOTION_DDOT":0},{"OBJECT_NAME":"STARLINK-34372","OBJECT_ID":"2025-123L","EPOCH":"2026-01-05T07:22:46.140672","MEAN_MOTION":14.98312132,"ECCENTRICITY":0.00051132,"INCLINATION":70.0021,"RA_OF_ASC_NODE":354.298,"ARG_OF_PERICENTER":249.0962,"MEAN_ANOMALY":110.965,"EPHEMERIS_TYPE":0,"CLASSIFICATION_TYPE":"U","NORAD_CAT_ID":64301,"ELEMENT_SET_NO":999,"REV_AT_EPOCH":3212,"BSTAR":-0.002192412,"MEAN_MOTION_DOT":-0.00026148,"MEAN_MOTION_DDOT":0}]
